STARLINK-37165          
1 68287U 26055AB  26092.91668981 -.01198824  00000+0 -65329-2 0  9997
2 68287  53.1582 215.6522 0001181  72.7811  25.5926 15.81819178  3525
STARLINK-37016          
1 68288U 26055AC  26092.91668981 -.01470470  00000+0 -79601-2 0  9996
2 68288  53.1581 215.6706 0001214  45.1377  44.4897 15.82073059  3525
STARLINK-37010          
1 68289U 26055AD  26092.91668981 -.01215666  00000+0 -66331-2 0  9997
2 68289  53.1585 215.6431 0000967  77.5548  25.0857 15.81831776  3526
STARLINK-37151          
1 68290U 26055AE  26092.91668981 -.01282763  00000+0 -70247-2 0  9992
2 68290  53.1582 215.6343 0000866  55.1951  51.6588 15.81905199  3522
STRIX-6                 
1 68291U 26056A   26092.91023687  .00008003  00000+0  66023-3 0  9990
2 68291  50.2842 345.5021 0016553 315.4739  44.4879 14.99673857  1973
ELECTRON KICK STAGE R/B 
1 68293U 26056C   26092.96150838  .00132743  00000+0  20531-2 0  9998
2 68293  50.2918 341.3353 0153834  64.5274 297.1517 15.40748270  2045
STARLINK-37107          
1 68294U 26057A   26092.91668981 -.01355222  00000+0 -53973-2 0  9996
2 68294  97.2809 216.4424 0001528  84.5697 151.9476 15.89163387  3056
STARLINK-37147          
1 68295U 26057B   26092.91668981 -.01365860  00000+0 -54284-2 0  9992
2 68295  97.2803 216.4434 0001422  77.4460 162.8612 15.89227282  3041
STARLINK-37142          
1 68296U 26057C   26092.91668981 -.01380801  00000+0 -54652-2 0  9994
2 68296  97.2796 216.4485 0001436  76.0479 176.5670 15.89338706  2936
STARLINK-37115          
1 68297U 26057D   26092.91668981 -.01384008  00000+0 -54931-2 0  9998
2 68297  97.2795 216.4458 0001431  81.3049 167.4125 15.89290606  2933
STARLINK-36355          
1 68298U 26057E   26092.91668981 -.01382450  00000+0 -54880-2 0  9991
2 68298  97.2800 216.4446 0001330  90.8576 153.3803 15.89284934  3201
STARLINK-37118          
1 68299U 26057F   26092.91668981 -.01589422  69222-3 -55443-2 0  9991
2 68299  97.2788 216.4514 0001402  85.0273 176.0368 15.89405231  3048
