CCSDS_OMM_VERS = 2.0
CREATION_DATE  = 
ORIGINATOR     = 

OBJECT_NAME    = STARLINK-37165
OBJECT_ID      = 2026-055AB
CENTER_NAME    = EARTH
REF_FRAME      = TEME
TIME_SYSTEM    = UTC
MEAN_ELEMENT_THEORY = SGP/SGP4

EPOCH          = 2026-04-02T22:00:01.999584
MEAN_MOTION    = 15.81819178
ECCENTRICITY   = .00011819
INCLINATION    = 53.1582
RA_OF_ASC_NODE = 215.6522
ARG_OF_PERICENTER = 72.7811
MEAN_ANOMALY   = 25.5926

EPHEMERIS_TYPE = 0
CLASSIFICATION_TYPE = U
NORAD_CAT_ID   = 68287
ELEMENT_SET_NO = 999
REV_AT_EPOCH   = 352
BSTAR          = -.65329282E-2
MEAN_MOTION_DOT = -.1198824E-1
MEAN_MOTION_DDOT = 0

CCSDS_OMM_VERS = 2.0
CREATION_DATE  = 
ORIGINATOR     = 

OBJECT_NAME    = STARLINK-37016
OBJECT_ID      = 2026-055AC
CENTER_NAME    = EARTH
REF_FRAME      = TEME
TIME_SYSTEM    = UTC
MEAN_ELEMENT_THEORY = SGP/SGP4

EPOCH          = 2026-04-02T22:00:01.999584
MEAN_MOTION    = 15.82073059
ECCENTRICITY   = .00012149
INCLINATION    = 53.1581
RA_OF_ASC_NODE = 215.6706
ARG_OF_PERICENTER = 45.1377
MEAN_ANOMALY   = 44.4897

EPHEMERIS_TYPE = 0
CLASSIFICATION_TYPE = U
NORAD_CAT_ID   = 68288
ELEMENT_SET_NO = 999
REV_AT_EPOCH   = 352
BSTAR          = -.79600575E-2
MEAN_MOTION_DOT = -.147047E-1
MEAN_MOTION_DDOT = 0

CCSDS_OMM_VERS = 2.0
CREATION_DATE  = 
ORIGINATOR     = 

OBJECT_NAME    = STARLINK-37010
OBJECT_ID      = 2026-055AD
CENTER_NAME    = EARTH
REF_FRAME      = TEME
TIME_SYSTEM    = UTC
MEAN_ELEMENT_THEORY = SGP/SGP4

EPOCH          = 2026-04-02T22:00:01.999584
MEAN_MOTION    = 15.81831776
ECCENTRICITY   = .00009672
INCLINATION    = 53.1585
RA_OF_ASC_NODE = 215.6431
ARG_OF_PERICENTER = 77.5548
MEAN_ANOMALY   = 25.0857

EPHEMERIS_TYPE = 0
CLASSIFICATION_TYPE = U
NORAD_CAT_ID   = 68289
ELEMENT_SET_NO = 999
REV_AT_EPOCH   = 352
BSTAR          = -.66330897E-2
MEAN_MOTION_DOT = -.1215666E-1
MEAN_MOTION_DDOT = 0

CCSDS_OMM_VERS = 2.0
CREATION_DATE  = 
ORIGINATOR     = 

OBJECT_NAME    = STARLINK-37151
OBJECT_ID      = 2026-055AE
CENTER_NAME    = EARTH
REF_FRAME      = TEME
TIME_SYSTEM    = UTC
MEAN_ELEMENT_THEORY = SGP/SGP4

EPOCH          = 2026-04-02T22:00:01.999584
MEAN_MOTION    = 15.81905199
ECCENTRICITY   = .00008666
INCLINATION    = 53.1582
RA_OF_ASC_NODE = 215.6343
ARG_OF_PERICENTER = 55.1951
MEAN_ANOMALY   = 51.6588

EPHEMERIS_TYPE = 0
CLASSIFICATION_TYPE = U
NORAD_CAT_ID   = 68290
ELEMENT_SET_NO = 999
REV_AT_EPOCH   = 352
BSTAR          = -.70247289E-2
MEAN_MOTION_DOT = -.1282763E-1
MEAN_MOTION_DDOT = 0

CCSDS_OMM_VERS = 2.0
CREATION_DATE  = 
ORIGINATOR     = 

OBJECT_NAME    = STRIX-6
OBJECT_ID      = 2026-056A
CENTER_NAME    = EARTH
REF_FRAME      = TEME
TIME_SYSTEM    = UTC
MEAN_ELEMENT_THEORY = SGP/SGP4

EPOCH          = 2026-04-02T21:50:44.465568
MEAN_MOTION    = 14.99673857
ECCENTRICITY   = .00165531
INCLINATION    = 50.2842
RA_OF_ASC_NODE = 345.5021
ARG_OF_PERICENTER = 315.4739
MEAN_ANOMALY   = 44.4879

EPHEMERIS_TYPE = 0
CLASSIFICATION_TYPE = U
NORAD_CAT_ID   = 68291
ELEMENT_SET_NO = 999
REV_AT_EPOCH   = 197
BSTAR          = .66023003E-3
MEAN_MOTION_DOT = .8003E-4
MEAN_MOTION_DDOT = 0

CCSDS_OMM_VERS = 2.0
CREATION_DATE  = 
ORIGINATOR     = 

OBJECT_NAME    = ELECTRON KICK STAGE R/B
OBJECT_ID      = 2026-056C
CENTER_NAME    = EARTH
REF_FRAME      = TEME
TIME_SYSTEM    = UTC
MEAN_ELEMENT_THEORY = SGP/SGP4

EPOCH          = 2026-04-02T23:04:34.324032
MEAN_MOTION    = 15.40748270
ECCENTRICITY   = .01538348
INCLINATION    = 50.2918
RA_OF_ASC_NODE = 341.3353
ARG_OF_PERICENTER = 64.5274
MEAN_ANOMALY   = 297.1517

EPHEMERIS_TYPE = 0
CLASSIFICATION_TYPE = U
NORAD_CAT_ID   = 68293
ELEMENT_SET_NO = 999
REV_AT_EPOCH   = 204
BSTAR          = .20530852E-2
MEAN_MOTION_DOT = .132743E-2
MEAN_MOTION_DDOT = 0

CCSDS_OMM_VERS = 2.0
CREATION_DATE  = 
ORIGINATOR     = 

OBJECT_NAME    = STARLINK-37107
OBJECT_ID      = 2026-057A
CENTER_NAME    = EARTH
REF_FRAME      = TEME
TIME_SYSTEM    = UTC
MEAN_ELEMENT_THEORY = SGP/SGP4

EPOCH          = 2026-04-02T22:00:01.999584
MEAN_MOTION    = 15.89163387
ECCENTRICITY   = .00015283
INCLINATION    = 97.2809
RA_OF_ASC_NODE = 216.4424
ARG_OF_PERICENTER = 84.5697
MEAN_ANOMALY   = 151.9476

EPHEMERIS_TYPE = 0
CLASSIFICATION_TYPE = U
NORAD_CAT_ID   = 68294
ELEMENT_SET_NO = 999
REV_AT_EPOCH   = 305
BSTAR          = -.53973163E-2
MEAN_MOTION_DOT = -.1355222E-1
MEAN_MOTION_DDOT = 0

CCSDS_OMM_VERS = 2.0
CREATION_DATE  = 
ORIGINATOR     = 

OBJECT_NAME    = STARLINK-37147
OBJECT_ID      = 2026-057B
CENTER_NAME    = EARTH
REF_FRAME      = TEME
TIME_SYSTEM    = UTC
MEAN_ELEMENT_THEORY = SGP/SGP4

EPOCH          = 2026-04-02T22:00:01.999584
MEAN_MOTION    = 15.89227282
ECCENTRICITY   = .00014225
INCLINATION    = 97.2803
RA_OF_ASC_NODE = 216.4434
ARG_OF_PERICENTER = 77.4460
MEAN_ANOMALY   = 162.8612

EPHEMERIS_TYPE = 0
CLASSIFICATION_TYPE = U
NORAD_CAT_ID   = 68295
ELEMENT_SET_NO = 999
REV_AT_EPOCH   = 304
BSTAR          = -.54283941E-2
MEAN_MOTION_DOT = -.136586E-1
MEAN_MOTION_DDOT = 0

CCSDS_OMM_VERS = 2.0
CREATION_DATE  = 
ORIGINATOR     = 

OBJECT_NAME    = STARLINK-37142
OBJECT_ID      = 2026-057C
CENTER_NAME    = EARTH
REF_FRAME      = TEME
TIME_SYSTEM    = UTC
MEAN_ELEMENT_THEORY = SGP/SGP4

EPOCH          = 2026-04-02T22:00:01.999584
MEAN_MOTION    = 15.89338706
ECCENTRICITY   = .00014367
INCLINATION    = 97.2796
RA_OF_ASC_NODE = 216.4485
ARG_OF_PERICENTER = 76.0479
MEAN_ANOMALY   = 176.5670

EPHEMERIS_TYPE = 0
CLASSIFICATION_TYPE = U
NORAD_CAT_ID   = 68296
ELEMENT_SET_NO = 999
REV_AT_EPOCH   = 293
BSTAR          = -.54652193E-2
MEAN_MOTION_DOT = -.1380801E-1
MEAN_MOTION_DDOT = 0

CCSDS_OMM_VERS = 2.0
CREATION_DATE  = 
ORIGINATOR     = 

OBJECT_NAME    = STARLINK-37115
OBJECT_ID      = 2026-057D
CENTER_NAME    = EARTH
REF_FRAME      = TEME
TIME_SYSTEM    = UTC
MEAN_ELEMENT_THEORY = SGP/SGP4

EPOCH          = 2026-04-02T22:00:01.999584
MEAN_MOTION    = 15.89290606
ECCENTRICITY   = .00014314
INCLINATION    = 97.2795
RA_OF_ASC_NODE = 216.4458
ARG_OF_PERICENTER = 81.3049
MEAN_ANOMALY   = 167.4125

EPHEMERIS_TYPE = 0
CLASSIFICATION_TYPE = U
NORAD_CAT_ID   = 68297
ELEMENT_SET_NO = 999
REV_AT_EPOCH   = 293
BSTAR          = -.54930825E-2
MEAN_MOTION_DOT = -.1384008E-1
MEAN_MOTION_DDOT = 0

CCSDS_OMM_VERS = 2.0
CREATION_DATE  = 
ORIGINATOR     = 

OBJECT_NAME    = STARLINK-36355
OBJECT_ID      = 2026-057E
CENTER_NAME    = EARTH
REF_FRAME      = TEME
TIME_SYSTEM    = UTC
MEAN_ELEMENT_THEORY = SGP/SGP4

EPOCH          = 2026-04-02T22:00:01.999584
MEAN_MOTION    = 15.89284934
ECCENTRICITY   = .00013308
INCLINATION    = 97.2800
RA_OF_ASC_NODE = 216.4446
ARG_OF_PERICENTER = 90.8576
MEAN_ANOMALY   = 153.3803

EPHEMERIS_TYPE = 0
CLASSIFICATION_TYPE = U
NORAD_CAT_ID   = 68298
ELEMENT_SET_NO = 999
REV_AT_EPOCH   = 320
BSTAR          = -.54879541E-2
MEAN_MOTION_DOT = -.138245E-1
MEAN_MOTION_DDOT = 0

CCSDS_OMM_VERS = 2.0
CREATION_DATE  = 
ORIGINATOR     = 

OBJECT_NAME    = STARLINK-37118
OBJECT_ID      = 2026-057F
CENTER_NAME    = EARTH
REF_FRAME      = TEME
TIME_SYSTEM    = UTC
MEAN_ELEMENT_THEORY = SGP/SGP4

EPOCH          = 2026-04-02T22:00:01.999584
MEAN_MOTION    = 15.89405231
ECCENTRICITY   = .00014025
INCLINATION    = 97.2788
RA_OF_ASC_NODE = 216.4514
ARG_OF_PERICENTER = 85.0273
MEAN_ANOMALY   = 176.0368

EPHEMERIS_TYPE = 0
CLASSIFICATION_TYPE = U
NORAD_CAT_ID   = 68299
ELEMENT_SET_NO = 999
REV_AT_EPOCH   = 304
BSTAR          = -.55443355E-2
MEAN_MOTION_DOT = -.1589422E-1
MEAN_MOTION_DDOT = .69222208E-3

